
AMAZONAS NEXUS
1 55508U 23017A   26169.52633323 -.00000289  00000+0  00000+0 0  9995
2 55508   0.0374  36.3998 0005220  35.4429 323.4129  1.00275843  7059

ANGOSAT 2
1 54033U 22131A   26168.61616823  .00000130  00000+0  00000+0 0  9992
2 54033   0.0320  83.0963 0000715  28.7776  38.8139  1.00272126 13480

APSTAR-6E
1 55239U 23005A   26169.69134051 -.00000324  00000+0  00000+0 0  9995
2 55239   0.0387 247.7467 0000913 297.0745 104.9723  1.00270657 18708

ARABSAT-7B (BADR-8)
1 56757U 23075A   26169.97132794  .00000138  00000+0  00000+0 0  9993
2 56757   0.0752  28.6288 0004420 356.1824 258.0734  1.00269738 11130

ARCTURUS
1 56371U 23060B   26170.12315192 -.00000070  00000+0  00000+0 0  9999
2 56371   2.7801  79.9301 0002611  52.0270 252.2326  1.00272391 11477

BEIDOU-3 G4
1 56564U 23066A   26170.27912113 -.00000287  00000+0  00000+0 0  9991
2 56564   0.4841 332.0989 0004396 179.5734 356.3603  1.00273118 11413

ELEKTRO-L 4
1 55506U 23016A   26169.79766479 -.00000065  00000+0  00000+0 0  9992
2 55506   0.0749 160.8880 0000839  15.4538 183.6464  1.00270889 12358

EUTELSAT 10B
1 54259U 22157A   26169.89687935  .00000061  00000+0  00000+0 0  9996
2 54259   0.0649  97.2261 0001155  12.1338 130.6241  1.00265775 13041

EUTELSAT HOTBIRD 13F
1 54048U 22134A   26170.25396773  .00000081  00000+0  00000+0 0  9998
2 54048   0.0483 295.6423 0002084  61.2679  15.0096  1.00271574 13398

EUTELSAT HOTBIRD 13G
1 54225U 22146A   26170.25388106  .00000081  00000+0  00000+0 0  9999
2 54225   0.0472 228.2031 0001931 314.9845 188.6871  1.00270774  7485

GALAXY 31 (G-31)
1 54243U 22153A   26170.22739881  .00000007  00000+0  00000+0 0  9992
2 54243   0.0206  80.7226 0001116 358.7754 148.8057  1.00271779  7151

GALAXY 32 (G-32)
1 54244U 22153B   26169.94820568 -.00000181  00000+0  00000+0 0  9997
2 54244   0.0125  22.5955 0002081  12.0145 122.9243  1.00271680 13160

GALAXY 33 (G-33)
1 54026U 22128A   26170.32566166  .00000073  00000+0  00000+0 0  9991
2 54026   0.0194  48.2442 0001694  35.5287 168.0130  1.00270175 13766

GALAXY 34 (G-34)
1 54027U 22128B   26169.64307292  .00000052  00000+0  00000+0 0  9995
2 54027   0.0104  30.3042 0001513  67.6466 271.4326  1.00274211 13920

GALAXY 35 (G-35)
1 54741U 22170A   26170.23285883 -.00000168  00000+0  00000+0 0  9992
2 54741   0.0127  63.0227 0001834  21.5282 173.6254  1.00271935 12918

GALAXY 36 (G-36)
1 54742U 22170B   26170.23372550 -.00000191  00000+0  00000+0 0  9997
2 54742   0.0035 352.5196 0002560  91.1528 178.9266  1.00272268 12798

GAOFEN-13 02
1 55912U 23036A   26170.13239192 -.00000225  00000+0  00000+0 0  9990
2 55912   1.0208   1.4351 0004063 336.3108 125.5645  1.00270186 12114

GS-1
1 56372U 23060C   26169.72235685 -.00000232  00000+0  00000+0 0  9992
2 56372   2.7297  79.8139 0003742 281.5832 255.0259  1.00274169  7559

INTELSAT 40E (IS-40E)
1 56174U 23052A   26169.62483850 -.00000180  00000+0  00000+0 0  9993
2 56174   0.0142  44.4220 0001943  81.4139 274.9633  1.00271281 11830

LDPE-2
1 54219U 22144A   26169.61433691  .00000119  00000+0  00000+0 0  9990
2 54219   5.6174  63.6428 0001836 101.6875 166.5333  1.00532955 11853

LDPE-3A
1 55264U 23008B   26170.22809214  .00000065  00000+0  00000+0 0  9998
2 55264   2.3541  81.6404 0001151  59.4963  91.1227  0.99145199 11838

LUCH-5X (OLYMP-K 2)
1 55841U 23031A   26168.76651992  .00000028  00000+0  00000+0 0  9998
2 55841   0.0237  60.4476 0000684 145.7824  37.7201  1.00272450 11949

METEOSAT-12 (MTG-I1)
1 54743U 22170C   26170.25128105 -.00000014  00000+0  00000+0 0  9999
2 54743   0.7410  23.3589 0003264  71.0263 263.1532  1.00273203 12992

NVS-01 (IRNSS-1J)
1 56759U 23076A   26170.27695447 -.00000343  00000+0  00000+0 0  9999
2 56759   2.1602 244.2432 0003074  35.9095 216.4487  1.00263943 11137

SES-18
1 55970U 23038A   26169.62130794 -.00000107  00000+0  00000+0 0  9995
2 55970   0.0169 299.6964 0000121 324.7472 122.9796  1.00271473 12118

SES-19
1 55971U 23038B   26170.01080968  .00000081  00000+0  00000+0 0  9998
2 55971   0.0144  27.2034 0001476  56.2664  52.7628  1.00272311 12115

SHIJIAN-23 (SJ-23)
1 55131U 23002A   26168.72928037 -.00000260  00000+0  00000+0 0  9990
2 55131   3.7196  78.3065 0003809 272.9008 325.0641  1.00087498 12517

USA 342
1 55263U 23008A   26166.33502449  .00000142  00000+0  00000+0 0  9990
2 55263   0.0090  64.0068 0000187 223.8693 120.1932  1.00270392 12493

VIASAT-3 F1
1 56370U 23060A   26169.80603065  .00000000  00000+0  00000+0 0  9992
2 56370   0.0244 348.3269 0001035  90.7537  29.1751  1.00270504 11453

ZHONGXING-19
1 54230U 22148A   26170.21241436 -.00000088  00000+0  00000+0 0  9995
2 54230   0.0172  26.2427 0002376  84.7159  36.1408  1.00271655 13408

ZHONGXING-26
1 55686U 23023A   26169.80316922 -.00000360  00000+0  00000+0 0  9993
2 55686   0.0695  70.8286 0003389  15.8874 234.5879  1.00269988 12249
