OBJECT_NAME,OBJECT_ID,EPOCH,MEAN_MOTION,ECCENTRICITY,INCLINATION,RA_OF_ASC_NODE,ARG_OF_PERICENTER,MEAN_ANOMALY,EPHEMERIS_TYPE,CLASSIFICATION_TYPE,NORAD_CAT_ID,ELEMENT_SET_NO,REV_AT_EPOCH,BSTAR,MEAN_MOTION_DOT,MEAN_MOTION_DDOT
GALAXY 33 (G-33),2022-128A,2026-06-19T07:48:57.167424,1.00270175,.00016941,0.0194,48.2442,35.5287,168.0130,0,U,54026,999,1376,0,.73E-6,0
GALAXY 34 (G-34),2022-128B,2026-06-18T15:26:01.500288,1.00274211,.0001513,0.0104,30.3042,67.6466,271.4326,0,U,54027,999,1392,0,.52E-6,0
ANGOSAT 2,2022-131A,2026-06-17T14:47:16.935072,1.00272126,.00007151,0.0320,83.0963,28.7776,38.8139,0,U,54033,999,1348,0,.13E-5,0
EUTELSAT HOTBIRD 13F,2022-134A,2026-06-19T06:05:42.811872,1.00271574,.00020848,0.0483,295.6423,61.2679,15.0096,0,U,54048,999,1339,0,.81E-6,0
LDPE-2,2022-144A,2026-06-18T14:44:38.709024,1.00532955,.00018362,5.6174,63.6428,101.6875,166.5333,0,U,54219,999,1185,0,.119E-5,0
EUTELSAT HOTBIRD 13G,2022-146A,2026-06-19T06:05:35.323584,1.00270774,.0001931,0.0472,228.2031,314.9845,188.6871,0,U,54225,999,748,0,.81E-6,0
ZHONGXING-19,2022-148A,2026-06-19T05:05:52.600704,1.00271655,.00023763,0.0172,26.2427,84.7159,36.1408,0,U,54230,999,1340,0,-.88E-6,0
GALAXY 31 (G-31),2022-153A,2026-06-19T05:27:27.257184,1.00271779,.00011163,0.0206,80.7226,358.7754,148.8057,0,U,54243,999,715,0,.7E-7,0
GALAXY 32 (G-32),2022-153B,2026-06-18T22:45:24.970752,1.00271680,.00020816,0.0125,22.5955,12.0145,122.9243,0,U,54244,999,1316,0,-.181E-5,0
EUTELSAT 10B,2022-157A,2026-06-18T21:31:30.375840,1.00265775,.0001155,0.0649,97.2261,12.1338,130.6241,0,U,54259,999,1304,0,.61E-6,0
GALAXY 35 (G-35),2022-170A,2026-06-19T05:35:19.002912,1.00271935,.00018342,0.0127,63.0227,21.5282,173.6254,0,U,54741,999,1291,0,-.168E-5,0
GALAXY 36 (G-36),2022-170B,2026-06-19T05:36:33.883200,1.00272268,.00025607,0.0035,352.5196,91.1528,178.9266,0,U,54742,999,1279,0,-.191E-5,0
METEOSAT-12 (MTG-I1),2022-170C,2026-06-19T06:01:50.682720,1.00273203,.00032649,0.7410,23.3589,71.0263,263.1532,0,U,54743,999,1299,0,-.14E-6,0
SHIJIAN-23 (SJ-23),2023-002A,2026-06-17T17:30:09.823968,1.00087498,.0003809,3.7196,78.3065,272.9008,325.0641,0,U,55131,999,1251,0,-.26E-5,0
APSTAR-6E,2023-005A,2026-06-18T16:35:31.820064,1.00270657,.0000913,0.0387,247.7467,297.0745,104.9723,0,U,55239,999,1870,0,-.324E-5,0
USA 342,2023-008A,2026-06-15T08:02:26.115936,1.00270392,.0000187,0.0090,64.0068,223.8693,120.1932,0,U,55263,999,1249,0,.142E-5,0
LDPE-3A,2023-008B,2026-06-19T05:28:27.160896,0.99145199,.00011519,2.3541,81.6404,59.4963,91.1227,0,U,55264,999,1183,0,.65E-6,0
ELEKTRO-L 4,2023-016A,2026-06-18T19:08:38.237856,1.00270889,.00008398,0.0749,160.8880,15.4538,183.6464,0,U,55506,999,1235,0,-.65E-6,0
AMAZONAS NEXUS,2023-017A,2026-06-18T12:37:55.191072,1.00275843,.00052207,0.0374,36.3998,35.4429,323.4129,0,U,55508,999,705,0,-.289E-5,0
ZHONGXING-26,2023-023A,2026-06-18T19:16:33.820608,1.00269988,.00033891,0.0695,70.8286,15.8874,234.5879,0,U,55686,999,1224,0,-.36E-5,0
LUCH-5X (OLYMP-K 2),2023-031A,2026-06-17T18:23:47.321088,1.00272450,.0000684,0.0237,60.4476,145.7824,37.7201,0,U,55841,999,1194,0,.28E-6,0
GAOFEN-13 02,2023-036A,2026-06-19T03:10:38.661888,1.00270186,.00040638,1.0208,1.4351,336.3108,125.5645,0,U,55912,999,1211,0,-.225E-5,0
SES-18,2023-038A,2026-06-18T14:54:41.006016,1.00271473,.00001214,0.0169,299.6964,324.7472,122.9796,0,U,55970,999,1211,0,-.107E-5,0
SES-19,2023-038B,2026-06-19T00:15:33.956352,1.00272311,.00014767,0.0144,27.2034,56.2664,52.7628,0,U,55971,999,1211,0,.81E-6,0
INTELSAT 40E (IS-40E),2023-052A,2026-06-18T14:59:46.046400,1.00271281,.00019438,0.0142,44.4220,81.4139,274.9633,0,U,56174,999,1183,0,-.18E-5,0
VIASAT-3 F1,2023-060A,2026-06-18T19:20:41.048160,1.00270504,.00010352,0.0244,348.3269,90.7537,29.1751,0,U,56370,999,1145,0,0,0
ARCTURUS,2023-060B,2026-06-19T02:57:20.325888,1.00272391,.0002611,2.7801,79.9301,52.0270,252.2326,0,U,56371,999,1147,0,-.7E-6,0
GS-1,2023-060C,2026-06-18T17:20:11.631840,1.00274169,.00037425,2.7297,79.8139,281.5832,255.0259,0,U,56372,999,755,0,-.232E-5,0
BEIDOU-3 G4,2023-066A,2026-06-19T06:41:56.065632,1.00273118,.00043965,0.4841,332.0989,179.5734,356.3603,0,U,56564,999,1141,0,-.287E-5,0
ARABSAT-7B (BADR-8),2023-075A,2026-06-18T23:18:42.734016,1.00269738,.00044209,0.0752,28.6288,356.1824,258.0734,0,U,56757,999,1113,0,.138E-5,0
NVS-01 (IRNSS-1J),2023-076A,2026-06-19T06:38:48.866208,1.00263943,.0003074,2.1602,244.2432,35.9095,216.4487,0,U,56759,999,1113,0,-.343E-5,0
